{
    "links": {
        "self": "http://www.neowsapp.com/rest/v1/neo/3673385?api_key=iIulBulltgU6a56xZRHN4H3l9WmuAYTsLGpBGhQ2"
    },
    "id": "3673385",
    "neo_reference_id": "3673385",
    "name": "(2014 LN9)",
    "designation": "2014 LN9",
    "nasa_jpl_url": "http://ssd.jpl.nasa.gov/sbdb.cgi?sstr=3673385",
    "absolute_magnitude_h": 20.6,
    "estimated_diameter": {
        "kilometers": {
            "estimated_diameter_min": 0.2016299194,
            "estimated_diameter_max": 0.4508582062
        },
        "meters": {
            "estimated_diameter_min": 201.6299194428,
            "estimated_diameter_max": 450.8582061718
        },
        "miles": {
            "estimated_diameter_min": 0.1252869847,
            "estimated_diameter_max": 0.2801502144
        },
        "feet": {
            "estimated_diameter_min": 661.5155049046,
            "estimated_diameter_max": 1479.1936371367
        }
    },
    "is_potentially_hazardous_asteroid": false,
    "close_approach_data": [
        {
            "close_approach_date": "2007-06-15",
            "close_approach_date_full": "2007-Jun-15 09:40",
            "epoch_date_close_approach": 1181900400000,
            "relative_velocity": {
                "kilometers_per_second": "21.664680327",
                "kilometers_per_hour": "77992.8491772018",
                "miles_per_hour": "48461.7234234674"
            },
            "miss_distance": {
                "astronomical": "0.4022072976",
                "lunar": "156.4586387664",
                "kilometers": "60169355.019416112",
                "miles": "37387503.5274898656"
            },
            "orbiting_body": "Earth"
        },
        {
            "close_approach_date": "2014-06-18",
            "close_approach_date_full": "2014-Jun-18 23:00",
            "epoch_date_close_approach": 1403132400000,
            "relative_velocity": {
                "kilometers_per_second": "19.7805774899",
                "kilometers_per_hour": "71210.0789637152",
                "miles_per_hour": "44247.1737872041"
            },
            "miss_distance": {
                "astronomical": "0.4552888817",
                "lunar": "177.1073749813",
                "kilometers": "68110246.937001979",
                "miles": "42321744.9612621502"
            },
            "orbiting_body": "Earth"
        },
        {
            "close_approach_date": "2016-10-23",
            "close_approach_date_full": "2016-Oct-23 05:21",
            "epoch_date_close_approach": 1477200060000,
            "relative_velocity": {
                "kilometers_per_second": "9.9349348259",
                "kilometers_per_hour": "35765.7653731494",
                "miles_per_hour": "22223.4557119994"
            },
            "miss_distance": {
                "astronomical": "1.7057711428",
                "lunar": "663.5449745492",
                "kilometers": "255179729.670345836",
                "miles": "158561331.4305150968"
            },
            "orbiting_body": "Juptr"
        },
        {
            "close_approach_date": "2021-06-16",
            "close_approach_date_full": "2021-Jun-16 12:20",
            "epoch_date_close_approach": 1623846000000,
            "relative_velocity": {
                "kilometers_per_second": "20.5162459469",
                "kilometers_per_hour": "73858.4854088908",
                "miles_per_hour": "45892.7905586522"
            },
            "miss_distance": {
                "astronomical": "0.4430013379",
                "lunar": "172.3275204431",
                "kilometers": "66272056.556990273",
                "miles": "41179546.4235728474"
            },
            "orbiting_body": "Earth"
        }
    ],
    "orbital_data": {
        "orbit_id": "9",
        "orbit_determination_date": "2017-04-06 08:40:11",
        "first_observation_date": "2014-06-01",
        "last_observation_date": "2014-07-01",
        "data_arc_in_days": 30,
        "observations_used": 39,
        "orbit_uncertainty": "7",
        "minimum_orbit_intersection": ".248897",
        "jupiter_tisserand_invariant": "2.890",
        "epoch_osculation": "2459000.5",
        "eccentricity": ".8662705342614883",
        "semi_major_axis": "2.30046735232197",
        "inclination": "18.88743209445754",
        "ascending_node_longitude": "201.6185154719942",
        "orbital_period": "1274.449227043506",
        "perihelion_distance": ".3076402699749057",
        "perihelion_argument": "168.9350101377131",
        "aphelion_distance": "4.293294434669034",
        "perihelion_time": "2459429.273778462900",
        "mean_anomaly": "238.8821422060663",
        "mean_motion": ".2824749643696167",
        "equinox": "J2000",
        "orbit_class": {
            "orbit_class_type": "APO",
            "orbit_class_description": "Near-Earth asteroid orbits which cross the Earth’s orbit similar to that of 1862 Apollo",
            "orbit_class_range": "a (semi-major axis) > 1.0 AU; q (perihelion) < 1.017 AU"
        }
    },
    "is_sentry_object": false
}